{
    "links": {
        "self": "http://www.neowsapp.com/rest/v1/neo/3478347?api_key=iIulBulltgU6a56xZRHN4H3l9WmuAYTsLGpBGhQ2"
    },
    "id": "3478347",
    "neo_reference_id": "3478347",
    "name": "(2009 WZ51)",
    "designation": "2009 WZ51",
    "nasa_jpl_url": "http://ssd.jpl.nasa.gov/sbdb.cgi?sstr=3478347",
    "absolute_magnitude_h": 25.4,
    "estimated_diameter": {
        "kilometers": {
            "estimated_diameter_min": 0.022108281,
            "estimated_diameter_max": 0.0494356193
        },
        "meters": {
            "estimated_diameter_min": 22.1082810359,
            "estimated_diameter_max": 49.435619262
        },
        "miles": {
            "estimated_diameter_min": 0.0137374447,
            "estimated_diameter_max": 0.0307178602
        },
        "feet": {
            "estimated_diameter_min": 72.5337327539,
            "estimated_diameter_max": 162.1903570994
        }
    },
    "is_potentially_hazardous_asteroid": false,
    "close_approach_data": [
        {
            "close_approach_date": "2009-11-18",
            "close_approach_date_full": "2009-Nov-18 12:32",
            "epoch_date_close_approach": 1258547520000,
            "relative_velocity": {
                "kilometers_per_second": "10.0609943498",
                "kilometers_per_hour": "36219.5796592631",
                "miles_per_hour": "22505.4382610571"
            },
            "miss_distance": {
                "astronomical": "0.0411242374",
                "lunar": "15.9973283486",
                "kilometers": "6152098.320414338",
                "miles": "3822736.6336523444"
            },
            "orbiting_body": "Earth"
        }
    ],
    "orbital_data": {
        "orbit_id": "6",
        "orbit_determination_date": "2017-04-06 08:58:59",
        "first_observation_date": "2009-11-22",
        "last_observation_date": "2009-11-23",
        "data_arc_in_days": 1,
        "observations_used": 25,
        "orbit_uncertainty": "8",
        "minimum_orbit_intersection": ".0300598",
        "jupiter_tisserand_invariant": "3.287",
        "epoch_osculation": "2455158.5",
        "eccentricity": ".5775866151309293",
        "semi_major_axis": "2.366114129999436",
        "inclination": "8.92563611972575",
        "ascending_node_longitude": "57.75631729296957",
        "orbital_period": "1329.388631444607",
        "perihelion_distance": ".9994782786395981",
        "perihelion_argument": "337.446240938266",
        "aphelion_distance": "3.732749981359274",
        "perihelion_time": "2455137.993489787519",
        "mean_anomaly": "5.553187007828543",
        "mean_motion": ".2708011724222424",
        "equinox": "J2000",
        "orbit_class": {
            "orbit_class_type": "APO",
            "orbit_class_description": "Near-Earth asteroid orbits which cross the Earth’s orbit similar to that of 1862 Apollo",
            "orbit_class_range": "a (semi-major axis) > 1.0 AU; q (perihelion) < 1.017 AU"
        }
    },
    "is_sentry_object": false
}